LEMUR-2-GREENBERG       
1 42837U 17042N   26068.46200528  .00019778  00000+0  72539-3 0  9997
2 42837  97.3781 249.8007 0009157   4.0119 356.1192 15.27971352473146
STARLINK-30107          
1 56287U 23056B   26068.65769541 -.00000122  00000+0  50864-5 0  9992
2 56287  43.0025 191.3282 0001075 253.2800 106.7934 15.27572483160295
